EUTELSAT 53A            
1 40277U 14064A   26160.20980113  .00000115  00000+0  00000+0 0  9999
2 40277   0.0145 284.0351 0000791 258.5594 203.5265  1.00270479 41480
GSAT-16                 
1 40332U 14078A   26160.13883764  .00000101  00000+0  00000+0 0  9997
2 40332   0.0681  92.8400 0007728 352.5357 277.1992  1.00272185 42027
DIRECTV 14              
1 40333U 14078B   26160.05357880 -.00000109  00000+0  00000+0 0  9993
2 40333   0.0091   1.3268 0000236 206.1301 330.0282  1.00271044 41966
YAMAL 401               
1 40345U 14082A   26157.85359110  .00000000  00000+0  00000+0 0  9992
2 40345   0.0116 319.1920 0000565 279.6182  53.7004  1.00271056 41817
ASTRA 2G                
1 40364U 14089A   26160.13355095  .00000166  00000+0  00000+0 0  9996
2 40364   0.0512  16.0552 0004907  44.7729 272.9501  1.00271293 41881
FENGYUN 2G              
1 40367U 14090A   26159.86966831 -.00000287  00000+0  00000+0 0  9990
2 40367   5.6171  72.9157 0003416 153.8778  83.1535  1.00276806 41916
MUOS-3                  
1 40374U 15002A   26160.09211582 -.00000113  00000+0  00000+0 0  9993
2 40374   4.5060  43.4919 0051603 178.4568  53.2484  1.00272003 41500
INMARSAT 5-F2           
1 40384U 15005A   26160.18030708 -.00000269  00000+0  00000+0 0  9998
2 40384   0.0185 352.8781 0000555 230.3495  44.2414  1.00270304 40910
ABS-3A                  
1 40424U 15010A   26160.16850193  .00000000  00000+0  00000+0 0  9997
2 40424   0.0311  50.2114 0001773 343.1367 281.8311  1.00268915 41291
EUTELSAT 115 WEST B     
1 40425U 15010B   26159.96266212 -.00000008  00000+0  00000+0 0  9996
2 40425   0.0228 162.5014 0000097 167.0892 159.4034  1.00271121 41317
EXPRESS-AM7             
1 40505U 15012A   26160.11642105  .00000167  00000+0  00000+0 0  9990
2 40505   0.0148 291.8494 0003208 158.0525 249.5197  1.00273371 40921
BEIDOU-3S IGSO-1S       
1 40549U 15019A   26159.97381815 -.00000171  00000+0  00000+0 0  9991
2 40549  49.2122 295.5620 0038592 191.0406 213.4685  1.00252272 40993
THOR 7                  
1 40613U 15022A   26160.16850193  .00000008  00000+0  00000+0 0  9998
2 40613   0.0068  47.7664 0002601  31.6999 238.0883  1.00271330 40733
TURKMENALEM52E/MONACOSAT
1 40617U 15023A   26160.06698243  .00000120  00000+0  00000+0 0  9993
2 40617   0.0166  12.2976 0002856  67.1689 254.1209  1.00272500 40765
DIRECTV 15              
1 40663U 15026A   26160.03626279 -.00000086  00000+0  00000+0 0  9996
2 40663   0.0035  71.5412 0000542 190.7091 265.3619  1.00272723 40388
SKY MEXICO-1            
1 40664U 15026B   26160.20013617 -.00000218  00000+0  00000+0 0  9999
2 40664   0.0142 294.5315 0002144 162.1434 154.1592  1.00271300 40375
METEOSAT-11 (MSG-4)     
1 40732U 15034A   26160.12982426  .00000080  00000+0  00000+0 0  9994
2 40732   3.1821  71.1557 0001707   6.3993 236.1386  1.00277816  7136
STAR ONE C4             
1 40733U 15034B   26160.11406377 -.00000248  00000+0  00000+0 0  9997
2 40733   0.0235   9.9602 0002285  56.7372 161.8659  1.00272887 39937
WGS F7 (USA 263)        
1 40746U 15036A   26159.80617956  .00000034  00000+0  00000+0 0  9996
2 40746   0.0034 352.8150 0000298 342.7005  26.8809  1.00274438 39783
INTELSAT 34 (IS-34)     
1 40874U 15039A   26160.18030708 -.00000268  00000+0  00000+0 0  9998
2 40874   0.0132 314.0764 0001283 253.2498  59.6457  1.00239167 39550
EUTELSAT 8 WEST B       
1 40875U 15039B   26160.16850193 -.00000049  00000+0  00000+0 0  9992
2 40875   0.0635 357.6590 0003871  77.5217 235.0265  1.00271477 39579
GSAT-6                  
1 40880U 15041A   26160.14429766 -.00000143  00000+0  00000+0 0  9992
2 40880   1.8995  82.6913 0003407 350.9859 318.3135  1.00271391 39512
INMARSAT 5-F3           
1 40882U 15042A   26160.09223808  .00000067  00000+0  00000+0 0  9992
2 40882   0.0184 357.2086 0000200  50.0121  63.0980  1.00269790 39494
MUOS-4                  
1 40887U 15044A   26160.03065792 -.00000078  00000+0  00000+0 0  9992
2 40887   4.3139  42.1858 0059407   4.7833 296.5106  1.00271663 39475
TJS-1                   
1 40892U 15046A   26160.15864950 -.00000139  00000+0  00000+0 0  9994
2 40892   0.3015  84.9871 0005701 355.4127  29.3120  1.00272233 39493
EXPRESS-AM8             
1 40895U 15048A   26160.29424391 -.00000095  00000+0  00000+0 0  9996
2 40895   0.0164 284.6677 0000208 106.8020 318.1378  1.00271280 39268
BEIDOU-3S IGSO-2S       
1 40938U 15053A   26159.75511244 -.00000149  00000+0  00000+0 0  9993
2 40938  49.2356 258.8846 0065097 191.7719 173.9240  1.00261402 39271
SKY MUSTER 1 (NBN1A)    
1 40940U 15054A   26160.15565104  .00000000  00000+0  00000+0 0  9992
2 40940   0.0235 328.2868 0001743 121.4646   4.0670  1.00269767 39181
ARSAT 2                 
1 40941U 15054B   26160.11189711 -.00000208  00000+0  00000+0 0  9996
2 40941   0.0141  14.1201 0001975  57.5212 145.1307  1.00267076 39225
MORELOS 3               
1 40946U 15056A   26160.10558478 -.00000028  00000+0  00000+0 0  9992
2 40946   3.1806  14.8677 0001563 355.7979 171.7128  1.00271582 39203
APSTAR-9                
1 40982U 15059A   26160.22741295 -.00000249  00000+0  00000+0 0  9994
2 40982   0.0166   3.0383 0002332 178.9688 299.4744  1.00269744 39040
TURKSAT 4B              
1 40984U 15060A   26160.06654911  .00000132  00000+0  00000+0 0  9998
2 40984   0.0095  33.8235 0002438  30.9617 266.6298  1.00268839 39017
