OBJECT_NAME,OBJECT_ID,EPOCH,MEAN_MOTION,ECCENTRICITY,INCLINATION,RA_OF_ASC_NODE,ARG_OF_PERICENTER,MEAN_ANOMALY,EPHEMERIS_TYPE,CLASSIFICATION_TYPE,NORAD_CAT_ID,ELEMENT_SET_NO,REV_AT_EPOCH,BSTAR,MEAN_MOTION_DOT,MEAN_MOTION_DDOT
EUTELSAT 53A,2014-064A,2026-06-09T05:02:06.817632,1.00270479,.0000791,0.0145,284.0351,258.5594,203.5265,0,U,40277,999,4148,0,.115E-5,0
GSAT-16,2014-078A,2026-06-09T03:19:55.572096,1.00272185,.0007728,0.0681,92.8400,352.5357,277.1992,0,U,40332,999,4202,0,.101E-5,0
DIRECTV 14,2014-078B,2026-06-09T01:17:09.208320,1.00271044,.0000236,0.0091,1.3268,206.1301,330.0282,0,U,40333,999,4196,0,-.109E-5,0
YAMAL 401,2014-082A,2026-06-06T20:29:10.271040,1.00271056,.00005657,0.0116,319.1920,279.6182,53.7004,0,U,40345,999,4181,0,0,0
ASTRA 2G,2014-089A,2026-06-09T03:12:18.802080,1.00271293,.0004907,0.0512,16.0552,44.7729,272.9501,0,U,40364,999,4188,0,.166E-5,0
FENGYUN 2G,2014-090A,2026-06-08T20:52:19.341984,1.00276806,.0003416,5.6171,72.9157,153.8778,83.1535,0,U,40367,999,4191,0,-.287E-5,0
MUOS-3,2015-002A,2026-06-09T02:12:38.806848,1.00272003,.0051603,4.5060,43.4919,178.4568,53.2484,0,U,40374,999,4150,0,-.113E-5,0
INMARSAT 5-F2,2015-005A,2026-06-09T04:19:38.531712,1.00270304,.0000555,0.0185,352.8781,230.3495,44.2414,0,U,40384,999,4091,0,-.269E-5,0
ABS-3A,2015-010A,2026-06-09T04:02:38.566752,1.00268915,.0001773,0.0311,50.2114,343.1367,281.8311,0,U,40424,999,4129,0,0,0
EUTELSAT 115 WEST B,2015-010B,2026-06-08T23:06:14.007168,1.00271121,.0000097,0.0228,162.5014,167.0892,159.4034,0,U,40425,999,4131,0,-.8E-7,0
EXPRESS-AM7,2015-012A,2026-06-09T02:47:38.778720,1.00273371,.0003208,0.0148,291.8494,158.0525,249.5197,0,U,40505,999,4092,0,.167E-5,0
BEIDOU-3S IGSO-1S,2015-019A,2026-06-08T23:22:17.888160,1.00252272,.0038592,49.2122,295.5620,191.0406,213.4685,0,U,40549,999,4099,0,-.171E-5,0
THOR 7,2015-022A,2026-06-09T04:02:38.566752,1.00271330,.0002601,0.0068,47.7664,31.6999,238.0883,0,U,40613,999,4073,0,.8E-7,0
TURKMENALEM52E/MONACOSAT,2015-023A,2026-06-09T01:36:27.281952,1.00272500,.0002856,0.0166,12.2976,67.1689,254.1209,0,U,40617,999,4076,0,.12E-5,0
DIRECTV 15,2015-026A,2026-06-09T00:52:13.105056,1.00272723,.0000542,0.0035,71.5412,190.7091,265.3619,0,U,40663,999,4038,0,-.86E-6,0
SKY MEXICO-1,2015-026B,2026-06-09T04:48:11.765088,1.00271300,.0002144,0.0142,294.5315,162.1434,154.1592,0,U,40664,999,4037,0,-.218E-5,0
METEOSAT-11 (MSG-4),2015-034A,2026-06-09T03:06:56.816064,1.00277816,.0001707,3.1821,71.1557,6.3993,236.1386,0,U,40732,999,713,0,.8E-6,0
STAR ONE C4,2015-034B,2026-06-09T02:44:15.109728,1.00272887,.0002285,0.0235,9.9602,56.7372,161.8659,0,U,40733,999,3993,0,-.248E-5,0
WGS F7 (USA 263),2015-036A,2026-06-08T19:20:53.913984,1.00274438,.0000298,0.0034,352.8150,342.7005,26.8809,0,U,40746,999,3978,0,.34E-6,0
INTELSAT 34 (IS-34),2015-039A,2026-06-09T04:19:38.531712,1.00239167,.0001283,0.0132,314.0764,253.2498,59.6457,0,U,40874,999,3955,0,-.268E-5,0
EUTELSAT 8 WEST B,2015-039B,2026-06-09T04:02:38.566752,1.00271477,.0003871,0.0635,357.6590,77.5217,235.0265,0,U,40875,999,3957,0,-.49E-6,0
GSAT-6,2015-041A,2026-06-09T03:27:47.317824,1.00271391,.0003407,1.8995,82.6913,350.9859,318.3135,0,U,40880,999,3951,0,-.143E-5,0
INMARSAT 5-F3,2015-042A,2026-06-09T02:12:49.370112,1.00269790,.00002,0.0184,357.2086,50.0121,63.0980,0,U,40882,999,3949,0,.67E-6,0
MUOS-4,2015-044A,2026-06-09T00:44:08.844288,1.00271663,.0059407,4.3139,42.1858,4.7833,296.5106,0,U,40887,999,3947,0,-.78E-6,0
TJS-1,2015-046A,2026-06-09T03:48:27.316800,1.00272233,.0005701,0.3015,84.9871,355.4127,29.3120,0,U,40892,999,3949,0,-.139E-5,0
EXPRESS-AM8,2015-048A,2026-06-09T07:03:42.673824,1.00271280,.0000208,0.0164,284.6677,106.8020,318.1378,0,U,40895,999,3926,0,-.95E-6,0
BEIDOU-3S IGSO-2S,2015-053A,2026-06-08T18:07:21.714816,1.00261402,.0065097,49.2356,258.8846,191.7719,173.9240,0,U,40938,999,3927,0,-.149E-5,0
SKY MUSTER 1 (NBN1A),2015-054A,2026-06-09T03:44:08.249856,1.00269767,.0001743,0.0235,328.2868,121.4646,4.0670,0,U,40940,999,3918,0,0,0
ARSAT 2,2015-054B,2026-06-09T02:41:07.910304,1.00267076,.0001975,0.0141,14.1201,57.5212,145.1307,0,U,40941,999,3922,0,-.208E-5,0
MORELOS 3,2015-056A,2026-06-09T02:32:02.524992,1.00271582,.0001563,3.1806,14.8677,355.7979,171.7128,0,U,40946,999,3920,0,-.28E-6,0
APSTAR-9,2015-059A,2026-06-09T05:27:28.478880,1.00269744,.0002332,0.0166,3.0383,178.9688,299.4744,0,U,40982,999,3904,0,-.249E-5,0
TURKSAT 4B,2015-060A,2026-06-09T01:35:49.843104,1.00268839,.0002438,0.0095,33.8235,30.9617,266.6298,0,U,40984,999,3901,0,.132E-5,0
